[Satellite]
VERSION=1.1
NAME=CSUNSAT 1
NICKNAME=CSUNSAT 1
TLE1=1 42715U 98067LW  18021.13840208  .00018220  00000-0  20450-3 0  9994
TLE2=2 42715  51.6386  24.2233 0004228 353.6298   6.4641 15.62697811 38501
